{"type": "FeatureCollection", "features": [ {"type": "Feature", "properties": {"norad_id": 66686, "name": "TRANSPORTER-15 W", "group": "last-30-days", "lat": -63.9306860273419, "lon": -128.72516596806798, "alt_km": 519.4472683839385, "timestamp": "2025-12-21T03:56:49.615182+00:00", "meta": {"OBJECT_NAME": "TRANSPORTER-15 W", "OBJECT_ID": "2025-276W", "EPOCH": "2025-12-20T18:57:18.203328", "MEAN_MOTION": 15.16979429, "ECCENTRICITY": 0.0004018, "INCLINATION": 97.4463, "RA_OF_ASC_NODE": 66.4127, "ARG_OF_PERICENTER": 253.1443, "MEAN_ANOMALY": 106.935, "EPHEMERIS_TYPE": 0, "CLASSIFICATION_TYPE": "U", "NORAD_CAT_ID": 66686, "ELEMENT_SET_NO": 999, "REV_AT_EPOCH": 334, "BSTAR": 0.00028624, "MEAN_MOTION_DOT": 5.587e-05, "MEAN_MOTION_DDOT": 0}, "tle": {"line1": "1 66686U 25276W   25354.78979402  .00005587  00000+0  28624-3 0  9998", "line2": "2 66686  97.4463  66.4127 0004018 253.1443 106.9350 15.16979429  3345"}}, "geometry": {"type": "Point", "coordinates": [-128.72516596806798, -63.9306860273419]}}, {"type": "Feature", "properties": {"norad_id": 66687, "name": "TRANSPORTER-15 X", "group": "last-30-days", "lat": -37.283969439466084, "lon": -118.96049538926063, "alt_km": 527.8183828442498, "timestamp": "2025-12-21T03:56:49.615192+00:00", "meta": {"OBJECT_NAME": "TRANSPORTER-15 X", "OBJECT_ID": "2025-276X", "EPOCH": "2025-12-20T17:29:26.299104", "MEAN_MOTION": 15.16644495, "ECCENTRICITY": 0.0008504, "INCLINATION": 97.4397, "RA_OF_ASC_NODE": 66.3218, "ARG_OF_PERICENTER": 62.0278, "MEAN_ANOMALY": 298.1815, "EPHEMERIS_TYPE": 0, "CLASSIFICATION_TYPE": "U", "NORAD_CAT_ID": 66687, "ELEMENT_SET_NO": 999, "REV_AT_EPOCH": 333, "BSTAR": 0.00036819, "MEAN_MOTION_DOT": 7.144e-05, "MEAN_MOTION_DDOT": 0}, "tle": {"line1": "1 66687U 25276X   25354.72877661  .00007144  00000+0  36819-3 0  9993", "line2": "2 66687  97.4397  66.3218 0008504  62.0278 298.1815 15.16644495  3330"}}, "geometry": {"type": "Point", "coordinates": [-118.96049538926063, -37.283969439466084]}}, {"type": "Feature", "properties": {"norad_id": 66688, "name": "TRANSPORTER-15 Y", "group": "last-30-days", "lat": -68.19410806131359, "lon": -132.29771481245976, "alt_km": 519.5732978348606, "timestamp": "2025-12-21T03:56:49.615201+00:00", "meta": {"OBJECT_NAME": "TRANSPORTER-15 Y", "OBJECT_ID": "2025-276Y", "EPOCH": "2025-12-20T18:56:08.380032", "MEAN_MOTION": 15.1705049, "ECCENTRICITY": 0.0003595, "INCLINATION": 97.444, "RA_OF_ASC_NODE": 66.4081, "ARG_OF_PERICENTER": 257.6156, "MEAN_ANOMALY": 102.4675, "EPHEMERIS_TYPE": 0, "CLASSIFICATION_TYPE": "U", "NORAD_CAT_ID": 66688, "ELEMENT_SET_NO": 999, "REV_AT_EPOCH": 334, "BSTAR": 0.00024824, "MEAN_MOTION_DOT": 4.846e-05, "MEAN_MOTION_DDOT": 0}, "tle": {"line1": "1 66688U 25276Y   25354.78898588  .00004846  00000+0  24824-3 0  9990", "line2": "2 66688  97.4440  66.4081 0003595 257.6156 102.4675 15.17050490  3340"}}, "geometry": {"type": "Point", "coordinates": [-132.29771481245976, -68.19410806131359]}}, {"type": "Feature", "properties": {"norad_id": 66689, "name": "TRANSPORTER-15 Z", "group": "last-30-days", "lat": -81.94357760694797, "lon": 179.33360586251922, "alt_km": 520.8301637973282, "timestamp": "2025-12-21T03:56:49.615211+00:00", "meta": {"OBJECT_NAME": "TRANSPORTER-15 Z", "OBJECT_ID": "2025-276Z", "EPOCH": "2025-12-20T18:51:34.676064", "MEAN_MOTION": 15.17193165, "ECCENTRICITY": 0.0001273, "INCLINATION": 97.4424, "RA_OF_ASC_NODE": 66.409, "ARG_OF_PERICENTER": 281.0091, "MEAN_ANOMALY": 79.0999, "EPHEMERIS_TYPE": 0, "CLASSIFICATION_TYPE": "U", "NORAD_CAT_ID": 66689, "ELEMENT_SET_NO": 999, "REV_AT_EPOCH": 334, "BSTAR": 0.00024455, "MEAN_MOTION_DOT": 4.792e-05, "MEAN_MOTION_DDOT": 0}, "tle": {"line1": "1 66689U 25276Z   25354.78581801  .00004792  00000+0  24455-3 0  9998", "line2": "2 66689  97.4424  66.4090 0001273 281.0091  79.0999 15.17193165  3348"}}, "geometry": {"type": "Point", "coordinates": [179.33360586251922, -81.94357760694797]}}, {"type": "Feature", "properties": {"norad_id": 66690, "name": "TRANSPORTER-15 AA", "group": "last-30-days", "lat": -67.99547931744124, "lon": -132.1016911113608, "alt_km": 519.6432165271399, "timestamp": "2025-12-21T03:56:49.615221+00:00", "meta": {"OBJECT_NAME": "TRANSPORTER-15 AA", "OBJECT_ID": "2025-276AA", "EPOCH": "2025-12-20T15:46:13.549728", "MEAN_MOTION": 15.17034124, "ECCENTRICITY": 0.0003557, "INCLINATION": 97.4405, "RA_OF_ASC_NODE": 66.2682, "ARG_OF_PERICENTER": 258.3974, "MEAN_ANOMALY": 101.6861, "EPHEMERIS_TYPE": 0, "CLASSIFICATION_TYPE": "U", "NORAD_CAT_ID": 66690, "ELEMENT_SET_NO": 999, "REV_AT_EPOCH": 332, "BSTAR": 0.00028838, "MEAN_MOTION_DOT": 5.638e-05, "MEAN_MOTION_DDOT": 0}, "tle": {"line1": "1 66690U 25276AA  25354.65710127  .00005638  00000+0  28838-3 0  9990", "line2": "2 66690  97.4405  66.2682 0003557 258.3974 101.6861 15.17034124  3325"}}, "geometry": {"type": "Point", "coordinates": [-132.1016911113608, -67.99547931744124]}}, {"type": "Feature", "properties": {"norad_id": 66691, "name": "TRANSPORTER-15 AB", "group": "last-30-days", "lat": -76.52776327650311, "lon": -146.29426823014617, "alt_km": 518.9810238158743, "timestamp": "2025-12-21T03:56:49.615229+00:00", "meta": {"OBJECT_NAME": "TRANSPORTER-15 AB", "OBJECT_ID": "2025-276AB", "EPOCH": "2025-12-20T18:53:45.369024", "MEAN_MOTION": 15.17253447, "ECCENTRICITY": 0.0003621, "INCLINATION": 97.4427, "RA_OF_ASC_NODE": 66.4063, "ARG_OF_PERICENTER": 259.0696, "MEAN_ANOMALY": 101.0131, "EPHEMERIS_TYPE": 0, "CLASSIFICATION_TYPE": "U", "NORAD_CAT_ID": 66691, "ELEMENT_SET_NO": 999, "REV_AT_EPOCH": 334, "BSTAR": 0.00034874, "MEAN_MOTION_DOT": 6.877e-05, "MEAN_MOTION_DDOT": 0}, "tle": {"line1": "1 66691U 25276AB  25354.78733066  .00006877  00000+0  34874-3 0  9995", "line2": "2 66691  97.4427  66.4063 0003621 259.0696 101.0131 15.17253447  3343"}}, "geometry": {"type": "Point", "coordinates": [-146.29426823014617, -76.52776327650311]}}, {"type": "Feature", "properties": {"norad_id": 66692, "name": "TRANSPORTER-15 AC", "group": "last-30-days", "lat": -81.00178931495732, "lon": 122.43590192879002, "alt_km": 519.892999546265, "timestamp": "2025-12-21T03:56:49.615238+00:00", "meta": {"OBJECT_NAME": "TRANSPORTER-15 AC", "OBJECT_ID": "2025-276AC", "EPOCH": "2025-12-20T14:04:36.458112", "MEAN_MOTION": 15.17376001, "ECCENTRICITY": 0.0001771, "INCLINATION": 97.4431, "RA_OF_ASC_NODE": 66.2203, "ARG_OF_PERICENTER": 278.2736, "MEAN_ANOMALY": 81.8297, "EPHEMERIS_TYPE": 0, "CLASSIFICATION_TYPE": "U", "NORAD_CAT_ID": 66692, "ELEMENT_SET_NO": 999, "REV_AT_EPOCH": 331, "BSTAR": 0.00037693, "MEAN_MOTION_DOT": 7.464e-05, "MEAN_MOTION_DDOT": 0}, "tle": {"line1": "1 66692U 25276AC  25354.58653308  .00007464  00000+0  37693-3 0  9999", "line2": "2 66692  97.4431  66.2203 0001771 278.2736  81.8297 15.17376001  3312"}}, "geometry": {"type": "Point", "coordinates": [122.43590192879002, -81.00178931495732]}}, {"type": "Feature", "properties": {"norad_id": 66693, "name": "TRANSPORTER-15 AD", "group": "last-30-days", "lat": -81.78562214459485, "lon": 131.60206759348523, "alt_km": 518.3474380257567, "timestamp": "2025-12-21T03:56:49.615247+00:00", "meta": {"OBJECT_NAME": "TRANSPORTER-15 AD", "OBJECT_ID": "2025-276AD", "EPOCH": "2025-12-20T14:05:06.843264", "MEAN_MOTION": 15.17546324, "ECCENTRICITY": 0.0003296, "INCLINATION": 97.4387, "RA_OF_ASC_NODE": 66.2014, "ARG_OF_PERICENTER": 285.5921, "MEAN_ANOMALY": 74.4949, "EPHEMERIS_TYPE": 0, "CLASSIFICATION_TYPE": "U", "NORAD_CAT_ID": 66693, "ELEMENT_SET_NO": 999, "REV_AT_EPOCH": 331, "BSTAR": 0.00059652, "MEAN_MOTION_DOT": 0.00011917, "MEAN_MOTION_DDOT": 0}, "tle": {"line1": "1 66693U 25276AD  25354.58688476  .00011917  00000+0  59652-3 0  9991", "line2": "2 66693  97.4387  66.2014 0003296 285.5921  74.4949 15.17546324  3313"}}, "geometry": {"type": "Point", "coordinates": [131.60206759348523, -81.78562214459485]}}, {"type": "Feature", "properties": {"norad_id": 66694, "name": "YAM-9", "group": "last-30-days", "lat": -74.64035584744303, "lon": 95.2037597491627, "alt_km": 519.7310197034112, "timestamp": "2025-12-21T03:56:49.615256+00:00", "meta": {"OBJECT_NAME": "YAM-9", "OBJECT_ID": "2025-276AE", "EPOCH": "2025-12-20T15:37:25.106592", "MEAN_MOTION": 15.17522904, "ECCENTRICITY": 0.000136, "INCLINATION": 97.4424, "RA_OF_ASC_NODE": 66.282, "ARG_OF_PERICENTER": 273.1704, "MEAN_ANOMALY": 86.9374, "EPHEMERIS_TYPE": 0, "CLASSIFICATION_TYPE": "U", "NORAD_CAT_ID": 66694, "ELEMENT_SET_NO": 999, "REV_AT_EPOCH": 332, "BSTAR": 0.00029613, "MEAN_MOTION_DOT": 5.873e-05, "MEAN_MOTION_DDOT": 0}, "tle": {"line1": "1 66694U 25276AE  25354.65098503  .00005873  00000+0  29613-3 0  9994", "line2": "2 66694  97.4424  66.2820 0001360 273.1704  86.9374 15.17522904  3322"}}, "geometry": {"type": "Point", "coordinates": [95.2037597491627, -74.64035584744303]}}, {"type": "Feature", "properties": {"norad_id": 66695, "name": "IRIDE FM1", "group": "last-30-days", "lat": -23.10190098339082, "lon": 70.00005650613087, "alt_km": 517.5298163222769, "timestamp": "2025-12-21T03:56:49.615265+00:00", "meta": {"OBJECT_NAME": "IRIDE FM1", "OBJECT_ID": "2025-276AF", "EPOCH": "2025-12-20T16:58:36.861312", "MEAN_MOTION": 15.18213048, "ECCENTRICITY": 0.0001147, "INCLINATION": 97.441, "RA_OF_ASC_NODE": 66.3545, "ARG_OF_PERICENTER": 147.2342, "MEAN_ANOMALY": 212.8963, "EPHEMERIS_TYPE": 0, "CLASSIFICATION_TYPE": "U", "NORAD_CAT_ID": 66695, "ELEMENT_SET_NO": 999, "REV_AT_EPOCH": 333, "BSTAR": 0.0003426, "MEAN_MOTION_DOT": 6.943e-05, "MEAN_MOTION_DDOT": 0}, "tle": {"line1": "1 66695U 25276AF  25354.70737108  .00006943  00000+0  34260-3 0  9995", "line2": "2 66695  97.4410  66.3545 0001147 147.2342 212.8963 15.18213048  3337"}}, "geometry": {"type": "Point", "coordinates": [70.00005650613087, -23.10190098339082]}}]}